      2.10          N: GNSS NAV DATA                        RINEX VERSION / TYPE
fic2rin                                 12/24/2022 00:17:42 PGM / RUN BY / DATE
                                                            END OF HEADER
21 22 12 23 15 59 44.0  .153120141476D-03 -.909494701773D-12  .000000000000D+00
     .200000000000D+01 -.405312500000D+02  .449840166220D-08 -.245790889039D+01
    -.152364373207D-05  .246665036539D-01 -.227242708206D-05  .515367210007D+04
     .489584000000D+06 -.931322574615D-08 -.123661468217D+01  .473111867905D-06
     .961040114927D+00  .424437500000D+03 -.851191574220D+00 -.820498462769D-08
    -.571452374714D-10  .100000000000D+01  .224100000000D+04  .000000000000D+00
     .240000000000D+01  .000000000000D+00 -.102445483208D-07  .200000000000D+01
     .485700000000D+06  .400000000000D+01
11 22 12 23 17 14 40.0 -.628987327218D-04 -.784439180279D-11  .000000000000D+00
     .172000000000D+03 -.808437500000D+02  .444839957941D-08 -.244431311639D+01
    -.412017107010D-05  .803536502644D-03 -.394880771637D-06  .515368742943D+04
     .494080000000D+06  .000000000000D+00 -.110066980416D+01 -.484287738800D-07
     .964333981775D+00  .387156250000D+03 -.276674880158D+01 -.839606401548D-08
    -.144291724615D-09  .100000000000D+01  .224100000000D+04  .000000000000D+00
     .240000000000D+01  .000000000000D+00 -.884756445885D-08  .172000000000D+03
     .486900000000D+06  .400000000000D+01
21 22 12 23 17 59 44.0  .153113156557D-03 -.909494701773D-12  .000000000000D+00
     .600000000000D+01 -.533437500000D+02  .483770150969D-08 -.140783879958D+01
    -.249035656452D-05  .246676634997D-01 -.944361090660D-06  .515366642761D+04
     .496784000000D+06 -.489875674248D-06 -.123667751011D+01 -.447034835815D-07
     .961037370493D+00  .406281250000D+03 -.851076167539D+00 -.885286875752D-08
     .105718689322D-09  .100000000000D+01  .224100000000D+04  .000000000000D+00
     .240000000000D+01  .000000000000D+00 -.102445483208D-07  .600000000000D+01
     .489600000000D+06  .400000000000D+01
5  22 12 23 18  0  0.0 -.109201297164D-03 -.147792889038D-11  .000000000000D+00
     .730000000000D+02 -.149250000000D+03  .403266797681D-08 -.106368162922D+01
    -.763311982155D-05  .581500679255D-02  .955909490585D-05  .515359202003D+04
     .496800000000D+06  .931322574615D-08 -.149844192881D+00  .124797224998D-06
     .964208122544D+00  .194437500000D+03  .113993145474D+01 -.782389732530D-08
     .692886004340D-10  .100000000000D+01  .224100000000D+04  .000000000000D+00
     .240000000000D+01  .000000000000D+00 -.111758708954D-07  .730000000000D+02
     .489600000000D+06  .400000000000D+01
3  22 12 23 18  0  0.0 -.374971423298D-03  .795807864051D-12  .000000000000D+00
     .460000000000D+02 -.173781250000D+03  .365336646309D-08  .153112515131D+01
    -.898540019989D-05  .441102450714D-02  .960752367973D-05  .515376464272D+04
     .496800000000D+06 -.838190317154D-07 -.105342347794D+00 -.223517417908D-07
     .977195547911D+00  .202531250000D+03  .104038559800D+01 -.762531762509D-08
     .992898501065D-10  .100000000000D+01  .224100000000D+04  .000000000000D+00
     .240000000000D+01  .000000000000D+00  .186264514923D-08  .460000000000D+02
     .489600000000D+06  .400000000000D+01
2  22 12 23 18  0  0.0 -.631449278444D-03  .204636307899D-11  .000000000000D+00
     .520000000000D+02 -.567500000000D+02  .444089926699D-08  .171343245459D+01
    -.335648655891D-05  .200936316978D-01 -.186264514923D-05  .515369414330D+04
     .496800000000D+06  .398606061935D-06 -.123295887330D+01 -.279396772385D-06
     .966712891381D+00  .415406250000D+03 -.135043105170D+01 -.825570102594D-08
    -.143577409147D-09  .100000000000D+01  .224100000000D+04  .000000000000D+00
     .240000000000D+01  .000000000000D+00 -.176951289177D-07  .520000000000D+02
     .489600000000D+06  .400000000000D+01
1  22 12 23 18  0  0.0  .233787577599D-03 -.511590769747D-11  .000000000000D+00
     .290000000000D+02 -.668437500000D+02  .394409285873D-08  .266977030169D+01
    -.363029539585D-05  .121432818705D-01 -.155158340931D-05  .515365736389D+04
     .496800000000D+06  .167638063431D-07 -.113725514121D+01 -.912696123123D-07
     .988982940115D+00  .425500000000D+03  .939621601548D+00 -.808855120634D-08
    -.156435087578D-09  .100000000000D+01  .224100000000D+04  .000000000000D+00
     .240000000000D+01  .000000000000D+00  .465661287308D-08  .290000000000D+02
     .489600000000D+06  .400000000000D+01
12 22 12 23 18  0  0.0 -.319433864206D-03 -.454747350886D-11  .000000000000D+00
     .330000000000D+02  .770312500000D+02  .400802409315D-08  .129448124651D+01
     .389292836189D-05  .874289032072D-02  .117179006338D-04  .515370018768D+04
     .496800000000D+06 -.150874257088D-06  .310612537217D+01 -.838190317154D-07
     .967357713486D+00  .158250000000D+03  .132058346621D+01 -.765924760984D-08
    -.540736809573D-09  .100000000000D+01  .224100000000D+04  .000000000000D+00
     .240000000000D+01  .000000000000D+00 -.125728547573D-07  .330000000000D+02
     .489600000000D+06  .400000000000D+01
9  22 12 23 18  0  0.0 -.248677562922D-03  .625277607469D-11  .000000000000D+00
     .290000000000D+02 -.890625000000D+01  .474484049879D-08 -.102433625291D+01
    -.517815351486D-06  .263274088502D-02  .948831439018D-05  .515369777489D+04
     .496800000000D+06  .745058059692D-08  .920014664978D+00  .186264514923D-08
     .955193377032D+00  .199187500000D+03  .195122628761D+01 -.787961393183D-08
     .782175437889D-09  .100000000000D+01  .224100000000D+04  .000000000000D+00
     .240000000000D+01  .000000000000D+00  .931322574615D-09  .290000000000D+02
     .489600000000D+06  .400000000000D+01
10 22 12 23 18  0  0.0 -.173598527908D-04 -.159161572810D-11  .000000000000D+00
     .770000000000D+02 -.156343750000D+03  .375229915546D-08  .627053101313D+00
    -.805221498013D-05  .835283065680D-02  .105332583189D-04  .515369492149D+04
     .496800000000D+06 -.121071934700D-06 -.108024043406D+00  .121071934700D-06
     .976961543924D+00  .185343750000D+03 -.247649932126D+01 -.768353433576D-08
     .350014579512D-10  .100000000000D+01  .224100000000D+04  .000000000000D+00
     .240000000000D+01  .000000000000D+00  .232830643654D-08  .770000000000D+02
     .489600000000D+06  .400000000000D+01
8  22 12 23 18  0  0.0 -.100076664239D-03 -.181898940355D-11  .000000000000D+00
     .800000000000D+02  .180343750000D+03  .434910972931D-08 -.134920237899D+01
     .926852226257D-05  .802320789080D-02  .443495810032D-05  .515363870239D+04
     .496800000000D+06 -.558793544769D-08 -.222525767377D+01 -.171363353729D-06
     .960946925582D+00  .295593750000D+03  .178872468173D+00 -.811676666734D-08
     .295369446180D-09  .100000000000D+01  .224100000000D+04  .000000000000D+00
     .340000000000D+01  .000000000000D+00  .512227416039D-08  .800000000000D+02
     .489600000000D+06  .400000000000D+01
7  22 12 23 18  0  0.0  .270109623671D-03 -.568434188608D-11  .000000000000D+00
     .850000000000D+02 -.113750000000D+02  .528772025477D-08  .205999652895D+01
    -.812113285065D-06  .165292685851D-01  .558979809284D-05  .515359431648D+04
     .496800000000D+06 -.258907675743D-06  .199207527306D+01 -.370666384697D-06
     .950016679025D+00  .270250000000D+03 -.223361598161D+01 -.811748098281D-08
    -.233581158164D-09  .100000000000D+01  .224100000000D+04  .000000000000D+00
     .240000000000D+01  .000000000000D+00 -.111758708954D-07  .850000000000D+02
     .489600000000D+06  .400000000000D+01
6  22 12 23 18  0  0.0  .545832794160D-03  .716227077646D-11  .000000000000D+00
     .540000000000D+02 -.655000000000D+02  .405838333367D-08  .295367146510D+01
    -.335462391376D-05  .277821999043D-02 -.979751348495D-06  .515358011055D+04
     .496800000000D+06  .614672899246D-07 -.114555162027D+01  .745058059692D-08
     .988248697142D+00  .414281250000D+03 -.900781239189D+00 -.815283959849D-08
    -.146791828755D-09  .100000000000D+01  .224100000000D+04  .000000000000D+00
     .240000000000D+01  .000000000000D+00  .372529029846D-08  .540000000000D+02
     .489600000000D+06  .400000000000D+01
4  22 12 23 18  0  0.0 -.629643909633D-04  .727595761418D-11  .000000000000D+00
     .530000000000D+02 -.640625000000D+01  .459947730098D-08 -.174615470043D+01
    -.508502125740D-06  .224377273116D-02  .888109207153D-05  .515372016525D+04
     .496800000000D+06  .540167093277D-07  .975471683282D+00 -.204890966415D-07
     .961956751600D+00  .210750000000D+03 -.310273688670D+01 -.777639534665D-08
     .791104381244D-09  .100000000000D+01  .224100000000D+04  .000000000000D+00
     .240000000000D+01  .000000000000D+00 -.465661287308D-08  .821000000000D+03
     .489600000000D+06  .400000000000D+01
13 22 12 23 18  0  0.0  .447024591267D-03  .659383658785D-11  .000000000000D+00
     .720000000000D+02  .127812500000D+02  .454768942952D-08 -.186003579823D+01
     .579282641411D-06  .672538660001D-02  .818446278572D-05  .515366312218D+04
     .496800000000D+06  .875443220139D-07  .107784494375D+01 -.540167093277D-07
     .969028184531D+00  .224156250000D+03  .951192424822D+00 -.775139430526D-08
     .752531345951D-09  .100000000000D+01  .224100000000D+04  .000000000000D+00
     .240000000000D+01  .000000000000D+00 -.116415321827D-07  .720000000000D+02
     .489600000000D+06  .400000000000D+01
14 22 12 23 18  0  0.0 -.630612485111D-04  .670752342558D-11  .000000000000D+00
     .840000000000D+02  .683437500000D+02  .449340145392D-08  .130668906235D+01
     .363402068615D-05  .247581431177D-02  .119451433420D-04  .515366610718D+04
     .496800000000D+06 -.298023223877D-07  .306993326896D+01  .484287738800D-07
     .950698644620D+00  .142843750000D+03 -.305916079666D+01 -.781496838194D-08
    -.653955811313D-09  .100000000000D+01  .224100000000D+04  .000000000000D+00
     .240000000000D+01  .000000000000D+00 -.791624188423D-08  .340000000000D+03
     .489600000000D+06  .400000000000D+01
